{"type": "FeatureCollection", "features": [ {"type": "Feature", "properties": {"norad_id": 66660, "name": "K-HERO", "group": "last-30-days", "lat": 27.540367216315275, "lon": -86.74114780204341, "alt_km": 591.8364765984943, "timestamp": "2025-12-16T03:53:25.816646+00:00", "meta": {"OBJECT_NAME": "K-HERO", "OBJECT_ID": "2025-274L", "EPOCH": "2025-12-15T08:27:50.361408", "MEAN_MOTION": 14.92976466, "ECCENTRICITY": 0.00124666, "INCLINATION": 97.7393, "RA_OF_ASC_NODE": 276.5294, "ARG_OF_PERICENTER": 271.0276, "MEAN_ANOMALY": 88.9515, "EPHEMERIS_TYPE": 0, "CLASSIFICATION_TYPE": "U", "NORAD_CAT_ID": 66660, "ELEMENT_SET_NO": 999, "REV_AT_EPOCH": 279, "BSTAR": 0.00027764222, "MEAN_MOTION_DOT": 2.831e-05, "MEAN_MOTION_DDOT": 0}, "tle": {"line1": "1 66660U 25274L   25349.35266622  .00002831  00000+0  27764-3 0  9991", "line2": "2 66660  97.7393 276.5294 0012466 271.0276  88.9515 14.92976466  2791"}}, "geometry": {"type": "Point", "coordinates": [-86.74114780204341, 27.540367216315275]}}, {"type": "Feature", "properties": {"norad_id": 66661, "name": "SNUGLITE-III", "group": "last-30-days", "lat": 37.69646287910455, "lon": -88.70373395705663, "alt_km": 591.193499535012, "timestamp": "2025-12-16T03:53:25.816657+00:00", "meta": {"OBJECT_NAME": "SNUGLITE-III", "OBJECT_ID": "2025-274M", "EPOCH": "2025-12-15T08:25:11.202240", "MEAN_MOTION": 14.93112348, "ECCENTRICITY": 0.00131182, "INCLINATION": 97.7393, "RA_OF_ASC_NODE": 276.5309, "ARG_OF_PERICENTER": 272.4214, "MEAN_ANOMALY": 87.5504, "EPHEMERIS_TYPE": 0, "CLASSIFICATION_TYPE": "U", "NORAD_CAT_ID": 66661, "ELEMENT_SET_NO": 999, "REV_AT_EPOCH": 279, "BSTAR": 0.00025086912, "MEAN_MOTION_DOT": 2.562e-05, "MEAN_MOTION_DDOT": 0}, "tle": {"line1": "1 66661U 25274M   25349.35082410  .00002562  00000+0  25087-3 0  9990", "line2": "2 66661  97.7393 276.5309 0013118 272.4214  87.5504 14.93112348  2796"}}, "geometry": {"type": "Point", "coordinates": [-88.70373395705663, 37.69646287910455]}}, {"type": "Feature", "properties": {"norad_id": 66662, "name": "2025-274N", "group": "last-30-days", "lat": 41.66096102131982, "lon": -89.61897672581506, "alt_km": 591.166195575529, "timestamp": "2025-12-16T03:53:25.816670+00:00", "meta": {"OBJECT_NAME": "2025-274N", "OBJECT_ID": "2025-274N", "EPOCH": "2025-12-15T08:24:08.935488", "MEAN_MOTION": 14.93166701, "ECCENTRICITY": 0.00135509, "INCLINATION": 97.7393, "RA_OF_ASC_NODE": 276.5321, "ARG_OF_PERICENTER": 271.8982, "MEAN_ANOMALY": 88.0685, "EPHEMERIS_TYPE": 0, "CLASSIFICATION_TYPE": "U", "NORAD_CAT_ID": 66662, "ELEMENT_SET_NO": 999, "REV_AT_EPOCH": 279, "BSTAR": 0.00026226192, "MEAN_MOTION_DOT": 2.685e-05, "MEAN_MOTION_DDOT": 0}, "tle": {"line1": "1 66662U 25274N   25349.35010342  .00002685  00000+0  26226-3 0  9998", "line2": "2 66662  97.7393 276.5321 0013550 271.8982  88.0685 14.93166701  2794"}}, "geometry": {"type": "Point", "coordinates": [-89.61897672581506, 41.66096102131982]}}, {"type": "Feature", "properties": {"norad_id": 66663, "name": "KSLV-II R/B", "group": "last-30-days", "lat": -23.792120587851265, "lon": -79.0911366675121, "alt_km": 548.0583877594936, "timestamp": "2025-12-16T03:53:25.816682+00:00", "meta": {"OBJECT_NAME": "KSLV-II R/B", "OBJECT_ID": "2025-274P", "EPOCH": "2025-12-15T07:08:48.551424", "MEAN_MOTION": 14.97331425, "ECCENTRICITY": 0.00530659, "INCLINATION": 97.741, "RA_OF_ASC_NODE": 276.6145, "ARG_OF_PERICENTER": 310.9589, "MEAN_ANOMALY": 48.7046, "EPHEMERIS_TYPE": 0, "CLASSIFICATION_TYPE": "U", "NORAD_CAT_ID": 66663, "ELEMENT_SET_NO": 999, "REV_AT_EPOCH": 279, "BSTAR": 0.00035715479, "MEAN_MOTION_DOT": 4.203e-05, "MEAN_MOTION_DDOT": 0}, "tle": {"line1": "1 66663U 25274P   25349.29778416  .00004203  00000+0  35715-3 0  9996", "line2": "2 66663  97.7410 276.6145 0053065 310.9589  48.7046 14.97331425  2798"}}, "geometry": {"type": "Point", "coordinates": [-79.0911366675121, -23.792120587851265]}}, {"type": "Feature", "properties": {"norad_id": 66664, "name": "SOYUZ-MS 28", "group": "last-30-days", "lat": 38.88306998905743, "lon": 165.24027234334034, "alt_km": 414.6337547107696, "timestamp": "2025-12-16T03:53:25.816695+00:00", "meta": {"OBJECT_NAME": "SOYUZ-MS 28", "OBJECT_ID": "2025-275A", "EPOCH": "2025-12-15T05:59:35.690496", "MEAN_MOTION": 15.49601155, "ECCENTRICITY": 0.00031934, "INCLINATION": 51.6306, "RA_OF_ASC_NODE": 130.0501, "ARG_OF_PERICENTER": 251.9008, "MEAN_ANOMALY": 108.1633, "EPHEMERIS_TYPE": 0, "CLASSIFICATION_TYPE": "U", "NORAD_CAT_ID": 66664, "ELEMENT_SET_NO": 999, "REV_AT_EPOCH": 128, "BSTAR": 0.00013467464, "MEAN_MOTION_DOT": 7.132e-05, "MEAN_MOTION_DDOT": 0}, "tle": {"line1": "1 66664U 25275A   25349.24971864  .00007132  00000+0  13467-3 0  9999", "line2": "2 66664  51.6306 130.0501 0003193 251.9008 108.1633 15.49601155  1282"}}, "geometry": {"type": "Point", "coordinates": [165.24027234334034, 38.88306998905743]}}, {"type": "Feature", "properties": {"norad_id": 66791, "name": "STARLINK-35867", "group": "last-30-days", "lat": 41.06533445508674, "lon": -18.101213728050652, "alt_km": 330.96387736257657, "timestamp": "2025-12-16T03:53:25.816706+00:00", "meta": {"OBJECT_NAME": "STARLINK-35867", "OBJECT_ID": "2025-278A", "EPOCH": "2025-12-15T08:00:01.999872", "MEAN_MOTION": 15.80271932, "ECCENTRICITY": 0.0001803, "INCLINATION": 42.9975, "RA_OF_ASC_NODE": 236.2046, "ARG_OF_PERICENTER": 281.7618, "MEAN_ANOMALY": 146.567, "EPHEMERIS_TYPE": 0, "CLASSIFICATION_TYPE": "U", "NORAD_CAT_ID": 66791, "ELEMENT_SET_NO": 999, "REV_AT_EPOCH": 337, "BSTAR": -0.0072707658, "MEAN_MOTION_DOT": -0.01248579, "MEAN_MOTION_DDOT": 0}, "tle": {"line1": "1 66791U 25278A   25349.33335648 -.01248579  00000+0 -72708-2 0  9994", "line2": "2 66791  42.9975 236.2046 0001803 281.7618 146.5670 15.80271932  3375"}}, "geometry": {"type": "Point", "coordinates": [-18.101213728050652, 41.06533445508674]}}, {"type": "Feature", "properties": {"norad_id": 66792, "name": "STARLINK-35990", "group": "last-30-days", "lat": 40.585865538459615, "lon": -15.703837670009692, "alt_km": 331.07232057739384, "timestamp": "2025-12-16T03:53:25.816717+00:00", "meta": {"OBJECT_NAME": "STARLINK-35990", "OBJECT_ID": "2025-278B", "EPOCH": "2025-12-15T08:00:01.999872", "MEAN_MOTION": 15.80291225, "ECCENTRICITY": 0.00018323, "INCLINATION": 42.9971, "RA_OF_ASC_NODE": 236.2001, "ARG_OF_PERICENTER": 276.4828, "MEAN_ANOMALY": 153.7044, "EPHEMERIS_TYPE": 0, "CLASSIFICATION_TYPE": "U", "NORAD_CAT_ID": 66792, "ELEMENT_SET_NO": 999, "REV_AT_EPOCH": 337, "BSTAR": -0.007342736, "MEAN_MOTION_DOT": -0.01260497, "MEAN_MOTION_DDOT": 0}, "tle": {"line1": "1 66792U 25278B   25349.33335648 -.01260497  00000+0 -73427-2 0  9997", "line2": "2 66792  42.9971 236.2001 0001832 276.4828 153.7044 15.80291225  3371"}}, "geometry": {"type": "Point", "coordinates": [-15.703837670009692, 40.585865538459615]}}, {"type": "Feature", "properties": {"norad_id": 66793, "name": "STARLINK-36051", "group": "last-30-days", "lat": 39.25603007214229, "lon": -10.151888220457984, "alt_km": 331.66049342409406, "timestamp": "2025-12-16T03:53:25.816729+00:00", "meta": {"OBJECT_NAME": "STARLINK-36051", "OBJECT_ID": "2025-278C", "EPOCH": "2025-12-15T08:00:01.999872", "MEAN_MOTION": 15.80189064, "ECCENTRICITY": 0.0001863, "INCLINATION": 43.0001, "RA_OF_ASC_NODE": 236.188, "ARG_OF_PERICENTER": 273.0023, "MEAN_ANOMALY": 162.0111, "EPHEMERIS_TYPE": 0, "CLASSIFICATION_TYPE": "U", "NORAD_CAT_ID": 66793, "ELEMENT_SET_NO": 999, "REV_AT_EPOCH": 327, "BSTAR": -0.0074966626, "MEAN_MOTION_DOT": -0.01278402, "MEAN_MOTION_DDOT": 0}, "tle": {"line1": "1 66793U 25278C   25349.33335648 -.01278402  00000+0 -74967-2 0  9993", "line2": "2 66793  43.0001 236.1880 0001863 273.0023 162.0111 15.80189064  3270"}}, "geometry": {"type": "Point", "coordinates": [-10.151888220457984, 39.25603007214229]}}, {"type": "Feature", "properties": {"norad_id": 66794, "name": "STARLINK-36062", "group": "last-30-days", "lat": 39.894057370997395, "lon": -12.656532014626992, "alt_km": 331.19960531852576, "timestamp": "2025-12-16T03:53:25.816739+00:00", "meta": {"OBJECT_NAME": "STARLINK-36062", "OBJECT_ID": "2025-278D", "EPOCH": "2025-12-15T08:00:01.999872", "MEAN_MOTION": 15.80142838, "ECCENTRICITY": 0.00018001, "INCLINATION": 42.9975, "RA_OF_ASC_NODE": 236.1932, "ARG_OF_PERICENTER": 283.7554, "MEAN_ANOMALY": 149.1037, "EPHEMERIS_TYPE": 0, "CLASSIFICATION_TYPE": "U", "NORAD_CAT_ID": 66794, "ELEMENT_SET_NO": 999, "REV_AT_EPOCH": 337, "BSTAR": -0.0069518745, "MEAN_MOTION_DOT": -0.01193564, "MEAN_MOTION_DDOT": 0}, "tle": {"line1": "1 66794U 25278D   25349.33335648 -.01193564  00000+0 -69519-2 0  9996", "line2": "2 66794  42.9975 236.1932 0001800 283.7554 149.1037 15.80142838  3377"}}, "geometry": {"type": "Point", "coordinates": [-12.656532014626992, 39.894057370997395]}}, {"type": "Feature", "properties": {"norad_id": 66795, "name": "STARLINK-36047", "group": "last-30-days", "lat": 38.476682543557864, "lon": -7.4059547330819475, "alt_km": 332.08778823227385, "timestamp": "2025-12-16T03:53:25.816750+00:00", "meta": {"OBJECT_NAME": "STARLINK-36047", "OBJECT_ID": "2025-278E", "EPOCH": "2025-12-15T08:00:01.999872", "MEAN_MOTION": 15.80125032, "ECCENTRICITY": 0.00019555, "INCLINATION": 43.0001, "RA_OF_ASC_NODE": 236.1817, "ARG_OF_PERICENTER": 279.0155, "MEAN_ANOMALY": 158.4811, "EPHEMERIS_TYPE": 0, "CLASSIFICATION_TYPE": "U", "NORAD_CAT_ID": 66795, "ELEMENT_SET_NO": 999, "REV_AT_EPOCH": 327, "BSTAR": -0.0075566845, "MEAN_MOTION_DOT": -0.01284096, "MEAN_MOTION_DDOT": 0}, "tle": {"line1": "1 66795U 25278E   25349.33335648 -.01284096  00000+0 -75567-2 0  9998", "line2": "2 66795  43.0001 236.1817 0001955 279.0155 158.4811 15.80125032  3277"}}, "geometry": {"type": "Point", "coordinates": [-7.4059547330819475, 38.476682543557864]}}]}